[{"OBJECT_NAME":"STARLINK-36693","OBJECT_ID":"2026-026X","EPOCH":"2026-03-09T22:00:01.999584","MEAN_MOTION":15.49113269,"ECCENTRICITY":7.243e-5,"INCLINATION":97.2856,"RA_OF_ASC_NODE":123.4955,"ARG_OF_PERICENTER":94.5259,"MEAN_ANOMALY":100.0824,"EPHEMERIS_TYPE":0,"CLASSIFICATION_TYPE":"U","NORAD_CAT_ID":67742,"ELEMENT_SET_NO":999,"REV_AT_EPOCH":548,"BSTAR":0.0017766358,"MEAN_MOTION_DOT":0.00097481,"MEAN_MOTION_DDOT":0},{"OBJECT_NAME":"ARC-1","OBJECT_ID":"2015-058F","EPOCH":"2026-03-09T11:16:24.767040","MEAN_MOTION":15.39473048,"ECCENTRICITY":0.00404032,"INCLINATION":64.7636,"RA_OF_ASC_NODE":93.5186,"ARG_OF_PERICENTER":65.9865,"MEAN_ANOMALY":294.5492,"EPHEMERIS_TYPE":0,"CLASSIFICATION_TYPE":"U","NORAD_CAT_ID":40969,"ELEMENT_SET_NO":999,"REV_AT_EPOCH":10163,"BSTAR":0.0010773685,"MEAN_MOTION_DOT":0.00043725,"MEAN_MOTION_DDOT":0}]
